{
  "type": "FeatureCollection",
  "features": [
    {
      "type": "Feature",
      "properties": {
        "norad_id": 51444,
        "name": "CSG-2",
        "group": "resource",
        "lat": 46.68816856413055,
        "lon": 155.1833423255669,
        "alt_km": 617.6441107528772,
        "timestamp": "2025-12-08T05:48:08.705448+00:00",
        "meta_object_name": "CSG-2",
        "meta_object_id": "2022-008A",
        "meta_epoch": "2025-12-07T23:06:31.990464",
        "meta_mean_motion": 14.82155686,
        "meta_eccentricity": 0.00014906,
        "meta_inclination": 97.8813,
        "meta_ra_of_asc_node": 163.3581,
        "meta_arg_of_pericenter": 88.0933,
        "meta_mean_anomaly": 272.045,
        "meta_ephemeris_type": 0,
        "meta_classification_type": "U",
        "meta_norad_cat_id": 51444,
        "meta_element_set_no": 999,
        "meta_rev_at_epoch": 20826,
        "meta_bstar": 0.00010191801,
        "meta_mean_motion_dot": 7.59e-06,
        "meta_mean_motion_ddot": 0,
        "tle_line1": "1 51444U 22008A   25341.96287026  .00000759  00000+0  10192-3 0  9991",
        "tle_line2": "2 51444  97.8813 163.3581 0001490  88.0933 272.0450 14.82155686208262"
      },
      "geometry": {
        "type": "Point",
        "coordinates": [
          155.1833423255669,
          46.68816856413055
        ]
      }
    },
    {
      "type": "Feature",
      "properties": {
        "norad_id": 52912,
        "name": "GAOFEN-12 03",
        "group": "resource",
        "lat": 5.100158165295758,
        "lon": -131.01087406997135,
        "alt_km": 632.2592601710749,
        "timestamp": "2025-12-08T05:48:08.705461+00:00",
        "meta_object_name": "GAOFEN-12 03",
        "meta_object_id": "2022-069A",
        "meta_epoch": "2025-12-07T23:17:13.145856",
        "meta_mean_motion": 14.79591406,
        "meta_eccentricity": 0.00022762,
        "meta_inclination": 97.8487,
        "meta_ra_of_asc_node": 229.4294,
        "meta_arg_of_pericenter": 70.7647,
        "meta_mean_anomaly": 289.3811,
        "meta_ephemeris_type": 0,
        "meta_classification_type": "U",
        "meta_norad_cat_id": 52912,
        "meta_element_set_no": 999,
        "meta_rev_at_epoch": 18633,
        "meta_bstar": 0.0002464038,
        "meta_mean_motion_dot": 1.795e-05,
        "meta_mean_motion_ddot": 0,
        "tle_line1": "1 52912U 22069A   25341.97029104  .00001795  00000+0  24640-3 0  9995",
        "tle_line2": "2 52912  97.8487 229.4294 0002276  70.7647 289.3811 14.79591406186333"
      },
      "geometry": {
        "type": "Point",
        "coordinates": [
          -131.01087406997135,
          5.100158165295758
        ]
      }
    },
    {
      "type": "Feature",
      "properties": {
        "norad_id": 54754,
        "name": "SWOT",
        "group": "resource",
        "lat": -3.3573414817738345,
        "lon": 113.80078663578654,
        "alt_km": 896.2354735948702,
        "timestamp": "2025-12-08T05:48:08.705471+00:00",
        "meta_object_name": "SWOT",
        "meta_object_id": "2022-173A",
        "meta_epoch": "2025-12-07T22:04:12.476640",
        "meta_mean_motion": 14.0017359,
        "meta_eccentricity": 3.469e-05,
        "meta_inclination": 77.6102,
        "meta_ra_of_asc_node": 293.4967,
        "meta_arg_of_pericenter": 126.045,
        "meta_mean_anomaly": 234.0734,
        "meta_ephemeris_type": 0,
        "meta_classification_type": "U",
        "meta_norad_cat_id": 54754,
        "meta_element_set_no": 999,
        "meta_rev_at_epoch": 15238,
        "meta_bstar": 9.7226185e-05,
        "meta_mean_motion_dot": 1.41e-06,
        "meta_mean_motion_ddot": 0,
        "tle_line1": "1 54754U 22173A   25341.91958885  .00000141  00000+0  97226-4 0  9993",
        "tle_line2": "2 54754  77.6102 293.4967 0000346 126.0450 234.0734 14.00173590152383"
      },
      "geometry": {
        "type": "Point",
        "coordinates": [
          113.80078663578654,
          -3.3573414817738345
        ]
      }
    },
    {
      "type": "Feature",
      "properties": {
        "norad_id": 57654,
        "name": "GAOFEN-12 04",
        "group": "resource",
        "lat": 6.382417964221705,
        "lon": 78.95849375464245,
        "alt_km": 632.6779019135274,
        "timestamp": "2025-12-08T05:48:08.705481+00:00",
        "meta_object_name": "GAOFEN-12 04",
        "meta_object_id": "2023-123A",
        "meta_epoch": "2025-12-07T22:31:45.712128",
        "meta_mean_motion": 14.79677967,
        "meta_eccentricity": 0.00013893,
        "meta_inclination": 97.912,
        "meta_ra_of_asc_node": 257.7688,
        "meta_arg_of_pericenter": 73.0904,
        "meta_mean_anomaly": 287.046,
        "meta_ephemeris_type": 0,
        "meta_classification_type": "U",
        "meta_norad_cat_id": 57654,
        "meta_element_set_no": 999,
        "meta_rev_at_epoch": 12434,
        "meta_bstar": 0.00030485052,
        "meta_mean_motion_dot": 2.237e-05,
        "meta_mean_motion_ddot": 0,
        "tle_line1": "1 57654U 23123A   25341.93872352  .00002237  00000+0  30485-3 0  9998",
        "tle_line2": "2 57654  97.9120 257.7688 0001389  73.0904 287.0460 14.79677967124348"
      },
      "geometry": {
        "type": "Point",
        "coordinates": [
          78.95849375464245,
          6.382417964221705
        ]
      }
    },
    {
      "type": "Feature",
      "properties": {
        "norad_id": 59065,
        "name": "PARS 1",
        "group": "resource",
        "lat": -58.75361453277487,
        "lon": -34.44176912765483,
        "alt_km": 457.919319837687,
        "timestamp": "2025-12-08T05:48:08.705491+00:00",
        "meta_object_name": "PARS 1",
        "meta_object_id": "2024-039Q",
        "meta_epoch": "2025-12-07T22:16:03.757728",
        "meta_mean_motion": 15.40814234,
        "meta_eccentricity": 0.00126879,
        "meta_inclination": 97.4635,
        "meta_ra_of_asc_node": 312.7592,
        "meta_arg_of_pericenter": 86.5628,
        "meta_mean_anomaly": 273.7069,
        "meta_ephemeris_type": 0,
        "meta_classification_type": "U",
        "meta_norad_cat_id": 59065,
        "meta_element_set_no": 999,
        "meta_rev_at_epoch": 9914,
        "meta_bstar": 0.00035806523,
        "meta_mean_motion_dot": 0.00014638,
        "meta_mean_motion_ddot": 0,
        "tle_line1": "1 59065U 24039Q   25341.92782127  .00014638  00000+0  35807-3 0  9993",
        "tle_line2": "2 59065  97.4635 312.7592 0012687  86.5628 273.7069 15.40814234 99148"
      },
      "geometry": {
        "type": "Point",
        "coordinates": [
          -34.44176912765483,
          -58.75361453277487
        ]
      }
    },
    {
      "type": "Feature",
      "properties": {
        "norad_id": 59371,
        "name": "RESURS-P 4",
        "group": "resource",
        "lat": -45.26587830212189,
        "lon": 101.27670758248603,
        "alt_km": 477.8274406204655,
        "timestamp": "2025-12-08T05:48:08.705502+00:00",
        "meta_object_name": "RESURS-P 4",
        "meta_object_id": "2024-061A",
        "meta_epoch": "2025-12-07T22:33:00.937152",
        "meta_mean_motion": 15.3202763,
        "meta_eccentricity": 0.00018625,
        "meta_inclination": 97.2544,
        "meta_ra_of_asc_node": 288.3678,
        "meta_arg_of_pericenter": 53.5958,
        "meta_mean_anomaly": 306.5456,
        "meta_ephemeris_type": 0,
        "meta_classification_type": "U",
        "meta_norad_cat_id": 59371,
        "meta_element_set_no": 999,
        "meta_rev_at_epoch": 9447,
        "meta_bstar": 0.00018059115,
        "meta_mean_motion_dot": 5.508e-05,
        "meta_mean_motion_ddot": 0,
        "tle_line1": "1 59371U 24061A   25341.93959418  .00005508  00000+0  18059-3 0  9994",
        "tle_line2": "2 59371  97.2544 288.3678 0001862  53.5958 306.5456 15.32027630 94474"
      },
      "geometry": {
        "type": "Point",
        "coordinates": [
          101.27670758248603,
          -45.26587830212189
        ]
      }
    },
    {
      "type": "Feature",
      "properties": {
        "norad_id": 59625,
        "name": "LEGION 1",
        "group": "resource",
        "lat": -16.968545954067796,
        "lon": 59.2294190195548,
        "alt_km": 518.7177669452731,
        "timestamp": "2025-12-08T05:48:08.705511+00:00",
        "meta_object_name": "LEGION 1",
        "meta_object_id": "2024-081A",
        "meta_epoch": "2025-12-07T21:57:33.188544",
        "meta_mean_motion": 15.16406398,
        "meta_eccentricity": 0.00043422,
        "meta_inclination": 97.5215,
        "meta_ra_of_asc_node": 56.5949,
        "meta_arg_of_pericenter": 337.6726,
        "meta_mean_anomaly": 22.4317,
        "meta_ephemeris_type": 0,
        "meta_classification_type": "U",
        "meta_norad_cat_id": 59625,
        "meta_element_set_no": 999,
        "meta_rev_at_epoch": 8854,
        "meta_bstar": 0.00033663528,
        "meta_mean_motion_dot": 6.476e-05,
        "meta_mean_motion_ddot": 0,
        "tle_line1": "1 59625U 24081A   25341.91496746  .00006476  00000+0  33664-3 0  9990",
        "tle_line2": "2 59625  97.5215  56.5949 0004342 337.6726  22.4317 15.16406398 88540"
      },
      "geometry": {
        "type": "Point",
        "coordinates": [
          59.2294190195548,
          -16.968545954067796
        ]
      }
    }
  ]
}